[{"OBJECT_NAME":"STARLINK-30544","OBJECT_ID":"2023-158E","EPOCH":"2026-03-09T07:07:54.230880","MEAN_MOTION":15.27633848,"ECCENTRICITY":0.0002176,"INCLINATION":43.0065,"RA_OF_ASC_NODE":28.9469,"ARG_OF_PERICENTER":251.3616,"MEAN_ANOMALY":108.6999,"EPHEMERIS_TYPE":0,"CLASSIFICATION_TYPE":"U","NORAD_CAT_ID":58055,"ELEMENT_SET_NO":999,"REV_AT_EPOCH":13351,"BSTAR":-0.00044228416,"MEAN_MOTION_DOT":-0.00012434,"MEAN_MOTION_DDOT":0},{"OBJECT_NAME":"ELECTRON KICK STAGE R\/B","OBJECT_ID":"2024-047B","EPOCH":"2026-03-09T21:11:54.433824","MEAN_MOTION":15.27307897,"ECCENTRICITY":0.00092426,"INCLINATION":97.6338,"RA_OF_ASC_NODE":46.9382,"ARG_OF_PERICENTER":20.6031,"MEAN_ANOMALY":339.5579,"EPHEMERIS_TYPE":0,"CLASSIFICATION_TYPE":"U","NORAD_CAT_ID":59225,"ELEMENT_SET_NO":999,"REV_AT_EPOCH":10999,"BSTAR":0.00091229405,"MEAN_MOTION_DOT":0.00024409,"MEAN_MOTION_DDOT":0}]
